ONEWEB-0291             
1 49081U 21075G   24233.27797009  .00000076  00000+0  16310-3 0  9998
2 49081  87.9179 138.4922 0002061  80.2190 279.9174 13.17653453145910
ONEWEB-0293             
1 49082U 21075H   24233.75942512 -.00000363  00000+0 -96931-3 0  9991
2 49082  87.9178 138.4141 0001868  84.9992 275.1353 13.17646376146989
ONEWEB-0294             
1 49083U 21075J   24234.23638365 -.00000476  00000+0 -13587-2 0  9994
2 49083  87.8918 123.1050 0002002  94.7954 265.3403 13.12447718148342
ONEWEB-0295             
1 49084U 21075K   24234.13929469  .00000112  00000+0  25310-3 0  9995
2 49084  87.9182 138.3168 0002322  82.1868 277.9527 13.18215485146978
ONEWEB-0296             
1 49085U 21075L   24233.75949336  .00000501  00000+0  13561-2 0  9994
2 49085  87.8922 123.2018 0002475  89.1636 270.9776 13.12444752148286
ONEWEB-0297             
1 49086U 21075M   24233.71407182 -.00000233  00000+0 -68304-3 0  9999
2 49086  87.8929 123.2225 0001875  75.2059 284.9277 13.12440052148888
ONEWEB-0298             
1 49087U 21075N   24233.76428030 -.00000004  00000+0 -43915-4 0  9998
2 49087  87.9180 138.4095 0002047  73.9743 286.1614 13.17648715146988
ONEWEB-0299             
1 49088U 21075P   24233.76588576 -.00000247  00000+0 -67006-3 0  9996
2 49088  87.9174 138.3758 0002144  75.3771 284.7598 13.17647706146942
